KUIPER-00027            
1 63740U 25088S   25201.33932714  .00014298  00000+0  38639-3 0  9990
2 63740  51.8716  59.7552 0002078  79.8484 280.2737 15.37982592 12979
KUIPER-00028            
1 63741U 25088T   25201.85074317  .00013528  00000+0  36477-3 0  9997
2 63741  51.8717  57.1806 0001885  64.4869 295.6313 15.38103106 13469
KUIPER-00029            
1 63742U 25088U   25201.31543980  .00009521  00000+0  27037-3 0  9996
2 63742  51.8695  60.3239 0005185  58.2002 301.9489 15.36866258 12903
KUIPER-00030            
1 63743U 25088V   25201.91668981 -.00740662  00000+0 -40192-1 0  9997
2 63743  51.8949  60.2339 0011163  40.5909 140.3908 15.16556788 13239
KUIPER-00031            
1 63744U 25088W   25201.87214110  .00012355  00000+0  33960-3 0  9990
2 63744  51.8702  57.3149 0004162  55.5437 304.5943 15.37590204 12995
KUIPER-00032            
1 63745U 25088X   25200.91274285  .00012714  00000+0  35219-3 0  9992
2 63745  51.8690  62.1240 0004921  43.6012 316.5363 15.37319216 13844
KUIPER-00033            
1 63746U 25088Y   25201.86449486  .00001123  00000+0  17698-3 0  9998
2 63746  51.9012  71.7229 0003450 120.4946 239.6357 14.79778425 13274
KUIPER-00034            
1 63747U 25088Z   25201.33399024  .00011002  00000+0  30247-3 0  9995
2 63747  51.8720  59.7185 0002400  73.4136 286.7115 15.37711681 13078
